ONEWEB-0435             
1 51632U 22012L   26185.83344814 -.00000605  00000+0 -17690-2 0  9998
2 51632  87.8812  32.7609 0001671  95.5768 264.5550 13.10371936211628
ONEWEB-0436             
1 51633U 22012M   26185.90533644  .00000005  00000+0 -21002-4 0  9995
2 51633  87.9145   2.3216 0001814  97.6499 262.4839 13.17649818216018
ONEWEB-0438             
1 51634U 22012N   26185.97092933 -.00000140  00000+0 -43673-3 0  9992
2 51634  87.8816  32.7375 0001910  80.3853 279.7490 13.10371624211677
ONEWEB-0439             
1 51635U 22012P   26185.82160820 -.00000357  00000+0 -10592-2 0  9991
2 51635  87.8811  32.7546 0001800  83.7113 276.4219 13.10371022211638
ONEWEB-0442             
1 51636U 22012Q   26185.89776531 -.00000014  00000+0 -70134-4 0  9991
2 51636  87.9136   2.3544 0002055  74.1211 286.0147 13.17650188216000
ONEWEB-0443             
1 51637U 22012R   26185.91714455  .00000036  00000+0  58555-4 0  9997
2 51637  87.9137   2.3516 0001491  86.4895 273.6407 13.17649601216052
ONEWEB-0444             
1 51638U 22012S   26186.04050901  .00000217  00000+0  58551-3 0  9998
2 51638  87.8809  32.7095 0001633  84.7255 275.4059 13.10371813211672
ONEWEB-0445             
1 51639U 22012T   26185.83175327 -.00000596  00000+0 -17431-2 0  9998
2 51639  87.8825  32.7406 0002107  87.3336 272.8032 13.10371024211657
ONEWEB-0446             
1 51640U 22012U   26185.80971153  .00000301  00000+0  82729-3 0  9993
2 51640  87.8815  32.7728 0002186  85.6528 274.4850 13.10368872211637
ONEWEB-0448             
1 51641U 22012V   26185.81482961 -.00000025  00000+0 -10794-3 0  9997
2 51641  87.8812  32.7676 0001773  85.7490 274.3840 13.10371815211603
ONEWEB-0449             
1 51642U 22012W   26185.97261223 -.00000277  00000+0 -82952-3 0  9995
2 51642  87.8814  32.7223 0002101  70.6099 289.5255 13.10370165211636
ONEWEB-0451             
1 51643U 22012X   26185.75009768  .00000053  00000+0  10397-3 0  9990
2 51643  87.9148   2.3504 0001797  83.0658 277.0678 13.17650727215976
ONEWEB-0452             
1 51644U 22012Y   26185.90027009  .00000042  00000+0  75742-4 0  9990
2 51644  87.9139   2.3555 0001605  83.4698 276.6617 13.17650812216007
ONEWEB-0456             
1 51646U 22012AA  26185.82835263 -.00000511  00000+0 -15014-2 0  9999
2 51646  87.8822  32.7396 0001704  89.1426 270.9897 13.10370785211653
ONEWEB-0457             
1 51647U 22012AB  26185.95893236  .00000437  00000+0  12169-2 0  9991
2 51647  87.8817  32.7304 0002180  82.5661 277.5714 13.10372876211670
ONEWEB-0458             
1 51648U 22012AC  26185.98024114 -.00000526  00000+0 -15431-2 0  9992
2 51648  87.8817  32.7144 0001665  81.2132 278.9184 13.10371059211633
