{"fetched_at":"2026-07-05T12:47:17.871Z","source":"https://celestrak.org/NORAD/elements/gp.php?GROUP=oneweb&FORMAT=JSON","constellation":"oneweb","records":[{"OBJECT_NAME":"ONEWEB-0435","OBJECT_ID":"2022-012L","EPOCH":"2026-07-04T20:00:09.919296","CLASSIFICATION_TYPE":"U","MEAN_MOTION":13.10371936,"ECCENTRICITY":0.00016717,"INCLINATION":87.8812,"RA_OF_ASC_NODE":32.7609,"ARG_OF_PERICENTER":95.5768,"MEAN_ANOMALY":264.555,"EPHEMERIS_TYPE":0,"NORAD_CAT_ID":51632,"ELEMENT_SET_NO":999,"REV_AT_EPOCH":21162,"BSTAR":-0.0017690313,"MEAN_MOTION_DOT":-0.00000605,"MEAN_MOTION_DDOT":0},{"OBJECT_NAME":"ONEWEB-0436","OBJECT_ID":"2022-012M","EPOCH":"2026-07-04T21:43:41.068416","CLASSIFICATION_TYPE":"U","MEAN_MOTION":13.17649818,"ECCENTRICITY":0.00018144,"INCLINATION":87.9145,"RA_OF_ASC_NODE":2.3216,"ARG_OF_PERICENTER":97.6499,"MEAN_ANOMALY":262.4839,"EPHEMERIS_TYPE":0,"NORAD_CAT_ID":51633,"ELEMENT_SET_NO":999,"REV_AT_EPOCH":21601,"BSTAR":-0.00002100153,"MEAN_MOTION_DOT":5e-8,"MEAN_MOTION_DDOT":0},{"OBJECT_NAME":"ONEWEB-0438","OBJECT_ID":"2022-012N","EPOCH":"2026-07-04T23:18:08.294112","CLASSIFICATION_TYPE":"U","MEAN_MOTION":13.10371624,"ECCENTRICITY":0.00019104,"INCLINATION":87.8816,"RA_OF_ASC_NODE":32.7375,"ARG_OF_PERICENTER":80.3853,"MEAN_ANOMALY":279.749,"EPHEMERIS_TYPE":0,"NORAD_CAT_ID":51634,"ELEMENT_SET_NO":999,"REV_AT_EPOCH":21167,"BSTAR":-0.00043672571,"MEAN_MOTION_DOT":-0.0000014,"MEAN_MOTION_DDOT":0},{"OBJECT_NAME":"ONEWEB-0439","OBJECT_ID":"2022-012P","EPOCH":"2026-07-04T19:43:06.948480","CLASSIFICATION_TYPE":"U","MEAN_MOTION":13.10371022,"ECCENTRICITY":0.00018005,"INCLINATION":87.8811,"RA_OF_ASC_NODE":32.7546,"ARG_OF_PERICENTER":83.7113,"MEAN_ANOMALY":276.4219,"EPHEMERIS_TYPE":0,"NORAD_CAT_ID":51635,"ELEMENT_SET_NO":999,"REV_AT_EPOCH":21163,"BSTAR":-0.0010592361,"MEAN_MOTION_DOT":-0.00000357,"MEAN_MOTION_DDOT":0},{"OBJECT_NAME":"ONEWEB-0442","OBJECT_ID":"2022-012Q","EPOCH":"2026-07-04T21:32:46.922784","CLASSIFICATION_TYPE":"U","MEAN_MOTION":13.17650188,"ECCENTRICITY":0.00020557,"INCLINATION":87.9136,"RA_OF_ASC_NODE":2.3544,"ARG_OF_PERICENTER":74.1211,"MEAN_ANOMALY":286.0147,"EPHEMERIS_TYPE":0,"NORAD_CAT_ID":51636,"ELEMENT_SET_NO":999,"REV_AT_EPOCH":21600,"BSTAR":-0.000070134264,"MEAN_MOTION_DOT":-1.4e-7,"MEAN_MOTION_DDOT":0},{"OBJECT_NAME":"ONEWEB-0443","OBJECT_ID":"2022-012R","EPOCH":"2026-07-04T22:00:41.289120","CLASSIFICATION_TYPE":"U","MEAN_MOTION":13.17649601,"ECCENTRICITY":0.00014915,"INCLINATION":87.9137,"RA_OF_ASC_NODE":2.3516,"ARG_OF_PERICENTER":86.4895,"MEAN_ANOMALY":273.6407,"EPHEMERIS_TYPE":0,"NORAD_CAT_ID":51637,"ELEMENT_SET_NO":999,"REV_AT_EPOCH":21605,"BSTAR":0.000058555451,"MEAN_MOTION_DOT":3.6e-7,"MEAN_MOTION_DDOT":0},{"OBJECT_NAME":"ONEWEB-0444","OBJECT_ID":"2022-012S","EPOCH":"2026-07-05T00:58:19.978464","CLASSIFICATION_TYPE":"U","MEAN_MOTION":13.10371813,"ECCENTRICITY":0.00016338,"INCLINATION":87.8809,"RA_OF_ASC_NODE":32.7095,"ARG_OF_PERICENTER":84.7255,"MEAN_ANOMALY":275.4059,"EPHEMERIS_TYPE":0,"NORAD_CAT_ID":51638,"ELEMENT_SET_NO":999,"REV_AT_EPOCH":21167,"BSTAR":0.00058550593,"MEAN_MOTION_DOT":0.00000217,"MEAN_MOTION_DDOT":0},{"OBJECT_NAME":"ONEWEB-0445","OBJECT_ID":"2022-012T","EPOCH":"2026-07-04T19:57:43.482528","CLASSIFICATION_TYPE":"U","MEAN_MOTION":13.10371024,"ECCENTRICITY":0.00021071,"INCLINATION":87.8825,"RA_OF_ASC_NODE":32.7406,"ARG_OF_PERICENTER":87.3336,"MEAN_ANOMALY":272.8032,"EPHEMERIS_TYPE":0,"NORAD_CAT_ID":51639,"ELEMENT_SET_NO":999,"REV_AT_EPOCH":21165,"BSTAR":-0.0017430658,"MEAN_MOTION_DOT":-0.00000596,"MEAN_MOTION_DDOT":0},{"OBJECT_NAME":"ONEWEB-0446","OBJECT_ID":"2022-012U","EPOCH":"2026-07-04T19:25:59.076192","CLASSIFICATION_TYPE":"U","MEAN_MOTION":13.10368872,"ECCENTRICITY":0.00021862,"INCLINATION":87.8815,"RA_OF_ASC_NODE":32.7728,"ARG_OF_PERICENTER":85.6528,"MEAN_ANOMALY":274.485,"EPHEMERIS_TYPE":0,"NORAD_CAT_ID":51640,"ELEMENT_SET_NO":999,"REV_AT_EPOCH":21163,"BSTAR":0.00082729162,"MEAN_MOTION_DOT":0.00000301,"MEAN_MOTION_DDOT":0},{"OBJECT_NAME":"ONEWEB-0448","OBJECT_ID":"2022-012V","EPOCH":"2026-07-04T19:33:21.278304","CLASSIFICATION_TYPE":"U","MEAN_MOTION":13.10371815,"ECCENTRICITY":0.00017736,"INCLINATION":87.8812,"RA_OF_ASC_NODE":32.7676,"ARG_OF_PERICENTER":85.749,"MEAN_ANOMALY":274.384,"EPHEMERIS_TYPE":0,"NORAD_CAT_ID":51641,"ELEMENT_SET_NO":999,"REV_AT_EPOCH":21160,"BSTAR":-0.00010794338,"MEAN_MOTION_DOT":-2.5e-7,"MEAN_MOTION_DDOT":0},{"OBJECT_NAME":"ONEWEB-0449","OBJECT_ID":"2022-012W","EPOCH":"2026-07-04T23:20:33.696672","CLASSIFICATION_TYPE":"U","MEAN_MOTION":13.10370165,"ECCENTRICITY":0.00021013,"INCLINATION":87.8814,"RA_OF_ASC_NODE":32.7223,"ARG_OF_PERICENTER":70.6099,"MEAN_ANOMALY":289.5255,"EPHEMERIS_TYPE":0,"NORAD_CAT_ID":51642,"ELEMENT_SET_NO":999,"REV_AT_EPOCH":21163,"BSTAR":-0.00082952469,"MEAN_MOTION_DOT":-0.00000277,"MEAN_MOTION_DDOT":0},{"OBJECT_NAME":"ONEWEB-0451","OBJECT_ID":"2022-012X","EPOCH":"2026-07-04T18:00:08.439552","CLASSIFICATION_TYPE":"U","MEAN_MOTION":13.17650727,"ECCENTRICITY":0.00017973,"INCLINATION":87.9148,"RA_OF_ASC_NODE":2.3504,"ARG_OF_PERICENTER":83.0658,"MEAN_ANOMALY":277.0678,"EPHEMERIS_TYPE":0,"NORAD_CAT_ID":51643,"ELEMENT_SET_NO":999,"REV_AT_EPOCH":21597,"BSTAR":0.00010396664,"MEAN_MOTION_DOT":5.3e-7,"MEAN_MOTION_DDOT":0},{"OBJECT_NAME":"ONEWEB-0452","OBJECT_ID":"2022-012Y","EPOCH":"2026-07-04T21:36:23.335776","CLASSIFICATION_TYPE":"U","MEAN_MOTION":13.17650812,"ECCENTRICITY":0.00016055,"INCLINATION":87.9139,"RA_OF_ASC_NODE":2.3555,"ARG_OF_PERICENTER":83.4698,"MEAN_ANOMALY":276.6617,"EPHEMERIS_TYPE":0,"NORAD_CAT_ID":51644,"ELEMENT_SET_NO":999,"REV_AT_EPOCH":21600,"BSTAR":0.000075742416,"MEAN_MOTION_DOT":4.2e-7,"MEAN_MOTION_DDOT":0},{"OBJECT_NAME":"ONEWEB-0456","OBJECT_ID":"2022-012AA","EPOCH":"2026-07-04T19:52:49.667232","CLASSIFICATION_TYPE":"U","MEAN_MOTION":13.10370785,"ECCENTRICITY":0.00017048,"INCLINATION":87.8822,"RA_OF_ASC_NODE":32.7396,"ARG_OF_PERICENTER":89.1426,"MEAN_ANOMALY":270.9897,"EPHEMERIS_TYPE":0,"NORAD_CAT_ID":51646,"ELEMENT_SET_NO":999,"REV_AT_EPOCH":21165,"BSTAR":-0.0015013602,"MEAN_MOTION_DOT":-0.00000511,"MEAN_MOTION_DDOT":0},{"OBJECT_NAME":"ONEWEB-0457","OBJECT_ID":"2022-012AB","EPOCH":"2026-07-04T23:00:51.755904","CLASSIFICATION_TYPE":"U","MEAN_MOTION":13.10372876,"ECCENTRICITY":0.00021807,"INCLINATION":87.8817,"RA_OF_ASC_NODE":32.7304,"ARG_OF_PERICENTER":82.5661,"MEAN_ANOMALY":277.5714,"EPHEMERIS_TYPE":0,"NORAD_CAT_ID":51647,"ELEMENT_SET_NO":999,"REV_AT_EPOCH":21167,"BSTAR":0.0012168695,"MEAN_MOTION_DOT":0.00000437,"MEAN_MOTION_DDOT":0},{"OBJECT_NAME":"ONEWEB-0458","OBJECT_ID":"2022-012AC","EPOCH":"2026-07-04T23:31:32.834496","CLASSIFICATION_TYPE":"U","MEAN_MOTION":13.10371059,"ECCENTRICITY":0.00016655,"INCLINATION":87.8817,"RA_OF_ASC_NODE":32.7144,"ARG_OF_PERICENTER":81.2132,"MEAN_ANOMALY":278.9184,"EPHEMERIS_TYPE":0,"NORAD_CAT_ID":51648,"ELEMENT_SET_NO":999,"REV_AT_EPOCH":21163,"BSTAR":-0.0015431131,"MEAN_MOTION_DOT":-0.00000526,"MEAN_MOTION_DDOT":0}]}
